[{"OBJECT_NAME":"KUIPER-00263","OBJECT_ID":"2026-072P","EPOCH":"2026-04-14T06:00:02.000160","MEAN_MOTION":15.38463134,"ECCENTRICITY":0.00021544,"INCLINATION":51.8762,"RA_OF_ASC_NODE":126.0484,"ARG_OF_PERICENTER":72.3484,"MEAN_ANOMALY":335.6005,"EPHEMERIS_TYPE":0,"CLASSIFICATION_TYPE":"U","NORAD_CAT_ID":68586,"ELEMENT_SET_NO":999,"REV_AT_EPOCH":130,"BSTAR":-0.00063546926,"MEAN_MOTION_DOT":-0.00024814,"MEAN_MOTION_DDOT":0},{"OBJECT_NAME":"KUIPER-00269","OBJECT_ID":"2026-072Q","EPOCH":"2026-04-14T06:00:02.000160","MEAN_MOTION":15.37630553,"ECCENTRICITY":0.00046002,"INCLINATION":51.8742,"RA_OF_ASC_NODE":126.1157,"ARG_OF_PERICENTER":117.1884,"MEAN_ANOMALY":260.7517,"EPHEMERIS_TYPE":0,"CLASSIFICATION_TYPE":"U","NORAD_CAT_ID":68587,"ELEMENT_SET_NO":999,"REV_AT_EPOCH":246,"BSTAR":-0.00064334378,"MEAN_MOTION_DOT":-0.00024462,"MEAN_MOTION_DDOT":0},{"OBJECT_NAME":"KUIPER-00272","OBJECT_ID":"2026-072R","EPOCH":"2026-04-14T06:00:02.000160","MEAN_MOTION":15.37398336,"ECCENTRICITY":0.00058848,"INCLINATION":51.8727,"RA_OF_ASC_NODE":126.1378,"ARG_OF_PERICENTER":131.8283,"MEAN_ANOMALY":235.7894,"EPHEMERIS_TYPE":0,"CLASSIFICATION_TYPE":"U","NORAD_CAT_ID":68588,"ELEMENT_SET_NO":999,"REV_AT_EPOCH":130,"BSTAR":-0.00063241156,"MEAN_MOTION_DOT":-0.00023883,"MEAN_MOTION_DDOT":0},{"OBJECT_NAME":"KUIPER-00285","OBJECT_ID":"2026-072S","EPOCH":"2026-04-14T06:00:02.000160","MEAN_MOTION":15.37306136,"ECCENTRICITY":0.00063619,"INCLINATION":51.8737,"RA_OF_ASC_NODE":126.1448,"ARG_OF_PERICENTER":138.0501,"MEAN_ANOMALY":225.8571,"EPHEMERIS_TYPE":0,"CLASSIFICATION_TYPE":"U","NORAD_CAT_ID":68589,"ELEMENT_SET_NO":999,"REV_AT_EPOCH":262,"BSTAR":-0.00062770585,"MEAN_MOTION_DOT":-0.00023642,"MEAN_MOTION_DDOT":0},{"OBJECT_NAME":"KUIPER-00286","OBJECT_ID":"2026-072T","EPOCH":"2026-04-14T06:00:02.000160","MEAN_MOTION":15.37728893,"ECCENTRICITY":0.00042746,"INCLINATION":51.8734,"RA_OF_ASC_NODE":126.1139,"ARG_OF_PERICENTER":120.2078,"MEAN_ANOMALY":259.1478,"EPHEMERIS_TYPE":0,"CLASSIFICATION_TYPE":"U","NORAD_CAT_ID":68590,"ELEMENT_SET_NO":999,"REV_AT_EPOCH":134,"BSTAR":-0.00064170488,"MEAN_MOTION_DOT":-0.00024476,"MEAN_MOTION_DDOT":0},{"OBJECT_NAME":"KUIPER-00289","OBJECT_ID":"2026-072U","EPOCH":"2026-04-14T06:00:02.000160","MEAN_MOTION":15.35988042,"ECCENTRICITY":0.00108591,"INCLINATION":51.8656,"RA_OF_ASC_NODE":126.2423,"ARG_OF_PERICENTER":154.7818,"MEAN_ANOMALY":161.612,"EPHEMERIS_TYPE":0,"CLASSIFICATION_TYPE":"U","NORAD_CAT_ID":68591,"ELEMENT_SET_NO":999,"REV_AT_EPOCH":268,"BSTAR":-0.00055004877,"MEAN_MOTION_DOT":-0.0001995,"MEAN_MOTION_DDOT":0},{"OBJECT_NAME":"KUIPER-00290","OBJECT_ID":"2026-072V","EPOCH":"2026-04-14T06:00:02.000160","MEAN_MOTION":15.36012139,"ECCENTRICITY":0.00110423,"INCLINATION":51.8641,"RA_OF_ASC_NODE":126.2358,"ARG_OF_PERICENTER":152.0755,"MEAN_ANOMALY":167.278,"EPHEMERIS_TYPE":0,"CLASSIFICATION_TYPE":"U","NORAD_CAT_ID":68592,"ELEMENT_SET_NO":999,"REV_AT_EPOCH":130,"BSTAR":-0.00055687639,"MEAN_MOTION_DOT":-0.00020209,"MEAN_MOTION_DDOT":0},{"OBJECT_NAME":"KUIPER-00293","OBJECT_ID":"2026-072W","EPOCH":"2026-04-14T06:00:02.000160","MEAN_MOTION":15.35712162,"ECCENTRICITY":0.00118655,"INCLINATION":51.8638,"RA_OF_ASC_NODE":126.2618,"ARG_OF_PERICENTER":157.7621,"MEAN_ANOMALY":148.7688,"EPHEMERIS_TYPE":0,"CLASSIFICATION_TYPE":"U","NORAD_CAT_ID":68593,"ELEMENT_SET_NO":999,"REV_AT_EPOCH":137,"BSTAR":-0.00053429885,"MEAN_MOTION_DOT":-0.00019231,"MEAN_MOTION_DDOT":0},{"OBJECT_NAME":"KUIPER-00294","OBJECT_ID":"2026-072X","EPOCH":"2026-04-14T06:00:02.000160","MEAN_MOTION":15.362571,"ECCENTRICITY":0.00097051,"INCLINATION":51.868,"RA_OF_ASC_NODE":126.2217,"ARG_OF_PERICENTER":151.9095,"MEAN_ANOMALY":174.8634,"EPHEMERIS_TYPE":0,"CLASSIFICATION_TYPE":"U","NORAD_CAT_ID":68594,"ELEMENT_SET_NO":999,"REV_AT_EPOCH":188,"BSTAR":-0.00057511717,"MEAN_MOTION_DOT":-0.00021008,"MEAN_MOTION_DDOT":0},{"OBJECT_NAME":"KUIPER-00296","OBJECT_ID":"2026-072Y","EPOCH":"2026-04-14T06:00:02.000160","MEAN_MOTION":15.3664839,"ECCENTRICITY":0.00084895,"INCLINATION":51.8701,"RA_OF_ASC_NODE":126.1949,"ARG_OF_PERICENTER":145.3601,"MEAN_ANOMALY":194.638,"EPHEMERIS_TYPE":0,"CLASSIFICATION_TYPE":"U","NORAD_CAT_ID":68595,"ELEMENT_SET_NO":999,"REV_AT_EPOCH":130,"BSTAR":-0.000597243,"MEAN_MOTION_DOT":-0.00022063,"MEAN_MOTION_DDOT":0},{"OBJECT_NAME":"KUIPER-00297","OBJECT_ID":"2026-072Z","EPOCH":"2026-04-14T06:00:02.000160","MEAN_MOTION":15.36132816,"ECCENTRICITY":0.00100555,"INCLINATION":51.8628,"RA_OF_ASC_NODE":126.228,"ARG_OF_PERICENTER":151.4514,"MEAN_ANOMALY":171.4539,"EPHEMERIS_TYPE":0,"CLASSIFICATION_TYPE":"U","NORAD_CAT_ID":68596,"ELEMENT_SET_NO":999,"REV_AT_EPOCH":255,"BSTAR":-0.00068419034,"MEAN_MOTION_DOT":-0.00024811,"MEAN_MOTION_DDOT":0},{"OBJECT_NAME":"KUIPER-00300","OBJECT_ID":"2026-072AA","EPOCH":"2026-04-14T06:00:02.000160","MEAN_MOTION":15.36832979,"ECCENTRICITY":0.00080872,"INCLINATION":51.8676,"RA_OF_ASC_NODE":126.1806,"ARG_OF_PERICENTER":145.3595,"MEAN_ANOMALY":201.6712,"EPHEMERIS_TYPE":0,"CLASSIFICATION_TYPE":"U","NORAD_CAT_ID":68597,"ELEMENT_SET_NO":999,"REV_AT_EPOCH":130,"BSTAR":-0.00060710007,"MEAN_MOTION_DOT":-0.00022549,"MEAN_MOTION_DDOT":0},{"OBJECT_NAME":"KUIPER-00301","OBJECT_ID":"2026-072AB","EPOCH":"2026-04-14T06:00:02.000160","MEAN_MOTION":15.36506282,"ECCENTRICITY":0.00087743,"INCLINATION":51.8653,"RA_OF_ASC_NODE":126.2028,"ARG_OF_PERICENTER":148.7221,"MEAN_ANOMALY":187.0774,"EPHEMERIS_TYPE":0,"CLASSIFICATION_TYPE":"U","NORAD_CAT_ID":68598,"ELEMENT_SET_NO":999,"REV_AT_EPOCH":227,"BSTAR":-0.00058710119,"MEAN_MOTION_DOT":-0.000216,"MEAN_MOTION_DDOT":0},{"OBJECT_NAME":"KUIPER-00304","OBJECT_ID":"2026-072AC","EPOCH":"2026-04-14T06:00:02.000160","MEAN_MOTION":15.36414813,"ECCENTRICITY":0.0009428,"INCLINATION":51.8666,"RA_OF_ASC_NODE":126.2094,"ARG_OF_PERICENTER":148.5316,"MEAN_ANOMALY":184.1358,"EPHEMERIS_TYPE":0,"CLASSIFICATION_TYPE":"U","NORAD_CAT_ID":68599,"ELEMENT_SET_NO":999,"REV_AT_EPOCH":269,"BSTAR":-0.00058173844,"MEAN_MOTION_DOT":-0.0002135,"MEAN_MOTION_DDOT":0},{"OBJECT_NAME":"KUIPER-00317","OBJECT_ID":"2026-072AD","EPOCH":"2026-04-14T06:00:02.000160","MEAN_MOTION":15.36734863,"ECCENTRICITY":0.00085212,"INCLINATION":51.8689,"RA_OF_ASC_NODE":126.1885,"ARG_OF_PERICENTER":140.76,"MEAN_ANOMALY":202.4119,"EPHEMERIS_TYPE":0,"CLASSIFICATION_TYPE":"U","NORAD_CAT_ID":68600,"ELEMENT_SET_NO":999,"REV_AT_EPOCH":223,"BSTAR":-0.00060065083,"MEAN_MOTION_DOT":-0.00022248,"MEAN_MOTION_DDOT":0},{"OBJECT_NAME":"KUIPER-00320","OBJECT_ID":"2026-072AE","EPOCH":"2026-04-14T06:00:02.000160","MEAN_MOTION":15.35922547,"ECCENTRICITY":0.00111827,"INCLINATION":51.8604,"RA_OF_ASC_NODE":126.2445,"ARG_OF_PERICENTER":154.8262,"MEAN_ANOMALY":159.2554,"EPHEMERIS_TYPE":0,"CLASSIFICATION_TYPE":"U","NORAD_CAT_ID":68601,"ELEMENT_SET_NO":999,"REV_AT_EPOCH":268,"BSTAR":-0.00054622632,"MEAN_MOTION_DOT":-0.00019776,"MEAN_MOTION_DDOT":0}]
