KUIPER-00263            
1 68586U 26072P   26104.25002315 -.00024814  00000+0 -63547-3 0  9999
2 68586  51.8762 126.0484 0002154  72.3484 335.6005 15.38463134  1303
KUIPER-00269            
1 68587U 26072Q   26104.25002315 -.00024462  00000+0 -64334-3 0  9994
2 68587  51.8742 126.1157 0004600 117.1884 260.7517 15.37630553  2464
KUIPER-00272            
1 68588U 26072R   26104.25002315 -.00023883  00000+0 -63241-3 0  9997
2 68588  51.8727 126.1378 0005884 131.8283 235.7894 15.37398336  1306
KUIPER-00285            
1 68589U 26072S   26104.25002315 -.00023642  00000+0 -62771-3 0  9998
2 68589  51.8737 126.1448 0006361 138.0501 225.8571 15.37306136  2624
KUIPER-00286            
1 68590U 26072T   26104.25002315 -.00024476  00000+0 -64170-3 0  9991
2 68590  51.8734 126.1139 0004274 120.2078 259.1478 15.37728893  1345
KUIPER-00289            
1 68591U 26072U   26104.25002315 -.00019950  00000+0 -55005-3 0  9990
2 68591  51.8656 126.2423 0010859 154.7818 161.6120 15.35988042  2687
KUIPER-00290            
1 68592U 26072V   26104.25002315 -.00020209  00000+0 -55688-3 0  9997
2 68592  51.8641 126.2358 0011042 152.0755 167.2780 15.36012139  1303
KUIPER-00293            
1 68593U 26072W   26104.25002315 -.00019231  00000+0 -53430-3 0  9994
2 68593  51.8638 126.2618 0011865 157.7621 148.7688 15.35712162  1376
KUIPER-00294            
1 68594U 26072X   26104.25002315 -.00021008  00000+0 -57512-3 0  9995
2 68594  51.8680 126.2217 0009705 151.9095 174.8634 15.36257100  1884
KUIPER-00296            
1 68595U 26072Y   26104.25002315 -.00022063  00000+0 -59724-3 0  9995
2 68595  51.8701 126.1949 0008489 145.3601 194.6380 15.36648390  1308
KUIPER-00297            
1 68596U 26072Z   26104.25002315 -.00024811  00000+0 -68419-3 0  9990
2 68596  51.8628 126.2280 0010055 151.4514 171.4539 15.36132816  2557
KUIPER-00300            
1 68597U 26072AA  26104.25002315 -.00022549  00000+0 -60710-3 0  9993
2 68597  51.8676 126.1806 0008087 145.3595 201.6712 15.36832979  1305
KUIPER-00301            
1 68598U 26072AB  26104.25002315 -.00021600  00000+0 -58710-3 0  9998
2 68598  51.8653 126.2028 0008774 148.7221 187.0774 15.36506282  2271
KUIPER-00304            
1 68599U 26072AC  26104.25002315 -.00021350  00000+0 -58174-3 0  9995
2 68599  51.8666 126.2094 0009428 148.5316 184.1358 15.36414813  2699
KUIPER-00317            
1 68600U 26072AD  26104.25002315 -.00022248  00000+0 -60065-3 0  9997
2 68600  51.8689 126.1885 0008521 140.7600 202.4119 15.36734863  2236
KUIPER-00320            
1 68601U 26072AE  26104.25002315 -.00019776  00000+0 -54623-3 0  9993
2 68601  51.8604 126.2445 0011182 154.8262 159.2554 15.35922547  2682
